IRIDIUM 26              
1 24903U 97043A   25057.33604925  .00001176  00000+0  39038-3 0  9992
2 24903  86.4024 157.1663 0002332  96.0847 264.0616 14.36997588441292
IRIDIUM 22              
1 24907U 97043E   25056.82644301  .00000957  00000+0  32415-3 0  9999
2 24907  86.4031 160.8176 0002098  94.5633 265.5803 14.35826260440794
DUMMY MASS 1            
1 24925U 97048A   25057.10707000  .00001261  00000+0  13837-3 0  9998
2 24925  86.3403 186.6391 0007049 161.4637 198.6845 14.86820552488866
DUMMY MASS 2            
1 24926U 97048B   25056.84880589  .00001290  00000+0  14251-3 0  9996
2 24926  86.3401 188.3434 0007309 175.2972 184.8322 14.86573118488361
IRIDIUM 29              
1 24944U 97051A   25056.88803812  .00001223  00000+0  41201-3 0  9999
2 24944  86.4015 190.5267 0001825  93.6909 266.4496 14.36304638437516
IRIDIUM 33              
1 24946U 97051C   25057.44672773  .00000936  00000+0  32341-3 0  9999
2 24946  86.3932 189.5448 0009830  82.8440 277.3873 14.34782188436874
IRIDIUM 28              
1 24948U 97051E   25057.42083358  .00001245  00000+0  41171-3 0  9999
2 24948  86.4025 187.8853 0002469  92.9296 267.2184 14.37239904438009
IRIDIUM 36              
1 24967U 97056C   25057.47025154  .00001348  00000+0  44456-3 0  9993
2 24967  86.3967 219.4554 0002127  85.7180 274.4261 14.37438357436318
